GLOBALSTAR M001 [-]     
1 25162U 98008A   23237.90748546 -.00000111  00000+0 -10665-3 0  9996
2 25162  52.0031  97.8521 0001336 331.8016 135.1622 12.38166409161790
GLOBALSTAR M004 [-]     
1 25163U 98008B   23237.45232083 -.00000077  00000+0  14813-3 0  9990
2 25163  51.9980 272.8578 0002818 256.5875 244.3443 12.63336529178041
GLOBALSTAR M002 [-]     
1 25164U 98008C   23237.89634590 -.00000076  00000+0  54793-5 0  9990
2 25164  52.0006  98.2580 0001984  29.8719 330.2214 11.61495407107228
GLOBALSTAR M014 [-]     
1 25306U 98023A   23237.62502361 -.00000070  00000+0  14722-3 0  9996
2 25306  51.9855  36.0650 0000601 156.9358 283.5200 11.65458960114039
GLOBALSTAR M006 [-]     
1 25307U 98023B   23237.86333248 -.00000086  00000+0 -22058-3 0  9998
2 25307  51.9941  63.2201 0003801  11.9804  96.7423 11.58153073140209
GLOBALSTAR M015 [-]     
1 25308U 98023C   23237.89716447 -.00000078  00000+0 -10010-3 0  9994
2 25308  51.9814 131.3126 0012698 344.1192  96.9013 11.48848931118077
GLOBALSTAR M008 [-]     
1 25309U 98023D   23237.69331701 -.00000046  00000+0  39281-3 0  9994
2 25309  51.9985 315.8223 0002506 208.3409 276.2553 12.36026320156042
